[{"OBJECT_NAME":"CONTECSAT-1","OBJECT_ID":"2024-043V","EPOCH":"2026-03-09T22:02:35.535840","MEAN_MOTION":15.34615346,"ECCENTRICITY":0.00100896,"INCLINATION":97.5476,"RA_OF_ASC_NODE":207.3735,"ARG_OF_PERICENTER":223.9905,"MEAN_ANOMALY":136.0535,"EPHEMERIS_TYPE":0,"CLASSIFICATION_TYPE":"U","NORAD_CAT_ID":59117,"ELEMENT_SET_NO":999,"REV_AT_EPOCH":11201,"BSTAR":0.0004369392,"MEAN_MOTION_DOT":0.00014607,"MEAN_MOTION_DDOT":0},{"OBJECT_NAME":"STARLINK-34214","OBJECT_ID":"2025-113W","EPOCH":"2026-03-09T12:01:47.501472","MEAN_MOTION":15.30212674,"ECCENTRICITY":0.00014369,"INCLINATION":53.1591,"RA_OF_ASC_NODE":92.19,"ARG_OF_PERICENTER":54.132,"MEAN_ANOMALY":305.9814,"EPHEMERIS_TYPE":0,"CLASSIFICATION_TYPE":"U","NORAD_CAT_ID":64190,"ELEMENT_SET_NO":999,"REV_AT_EPOCH":4503,"BSTAR":0.00094523194,"MEAN_MOTION_DOT":0.00027751,"MEAN_MOTION_DDOT":0}]
